ONEWEB-0018             
1 45434U 20020L   26151.20371992 -.00000349  00000+0 -10211-2 0  9996
2 45434  87.8903  24.4457 0001706  71.2437 288.8876 13.11416168300407
ONEWEB-0083             
1 45435U 20020M   26151.19369343  .00000046  00000+0  93164-4 0  9994
2 45435  87.8907  24.4401 0001749  84.6755 275.4573 13.11414073300442
ONEWEB-0095             
1 45436U 20020N   26151.18521671  .00000369  00000+0  10056-2 0  9993
2 45436  87.8911  24.4508 0002208 101.3810 258.7566 13.11416920300445
ONEWEB-0092             
1 45437U 20020P   26151.14414222 -.00000325  00000+0 -94439-3 0  9995
2 45437  87.8909  24.4522 0002076  89.0902 271.0464 13.11955775300559
ONEWEB-0085             
1 45438U 20020Q   26151.19342067  .00000063  00000+0  14292-3 0  9994
2 45438  87.8899  24.4483 0001792  85.6454 274.4878 13.11415277300444
ONEWEB-0096             
1 45439U 20020R   26151.19525723 -.00000081  00000+0 -26512-3 0  9997
2 45439  87.8912  24.4427 0001873  86.3349 273.7993 13.11415286300439
ONEWEB-0037             
1 45440U 20020S   26151.08241117  .00000215  00000+0  56760-3 0  9994
2 45440  87.8921  24.4398 0001871  85.8878 274.2464 13.11912913300457
ONEWEB-0042             
1 45441U 20020T   26151.18494406  .00000377  00000+0  10287-2 0  9999
2 45441  87.8908  24.4413 0001904  82.6901 277.4443 13.11415901300435
ONEWEB-0098             
1 45442U 20020U   26151.18084378  .00000513  00000+0  14104-2 0  9997
2 45442  87.8908  24.4521 0001735  86.8058 273.3268 13.11415195300410
ONEWEB-0055             
1 45443U 20020V   26151.08321095  .00000255  00000+0  68259-3 0  9991
2 45443  87.8910  24.4695 0001724  83.4830 276.6494 13.11416223300370
ONEWEB-0093             
1 45444U 20020W   26151.13943094 -.00000421  00000+0 -12230-2 0  9991
2 45444  87.8910  24.4509 0002124  76.4730 283.6635 13.11418565300445
ONEWEB-0029             
1 45445U 20020X   26151.09029598  .00000497  00000+0  13661-2 0  9991
2 45445  87.8904  24.4716 0002266  72.5530 287.5845 13.11420063300410
ONEWEB-0068             
1 45446U 20020Y   26151.13915602 -.00000464  00000+0 -13454-2 0  9993
2 45446  87.8912  24.4545 0001884  77.6236 282.5103 13.11417269300364
ONEWEB-0046             
1 45447U 20020Z   26151.13081286 -.00000471  00000+0 -13656-2 0  9998
2 45447  87.8909  24.4633 0002072  83.7007 276.4356 13.11416712300378
ONEWEB-0063             
1 45448U 20020AA  26151.08349657  .00000292  00000+0  78672-3 0  9991
2 45448  87.8913  24.4706 0002067  90.1446 269.9919 13.11419508300455
ONEWEB-0019             
1 45449U 20020AB  26151.19850041 -.00000213  00000+0 -63764-3 0  9999
2 45449  87.8905  24.4355 0001656  85.0535 275.0782 13.11414464300319
