[{"OBJECT_NAME":"ONEWEB-0018","OBJECT_ID":"2020-020L","EPOCH":"2026-05-31T04:53:21.401088","MEAN_MOTION":13.11416168,"ECCENTRICITY":0.0001706,"INCLINATION":87.8903,"RA_OF_ASC_NODE":24.4457,"ARG_OF_PERICENTER":71.2437,"MEAN_ANOMALY":288.8876,"EPHEMERIS_TYPE":0,"CLASSIFICATION_TYPE":"U","NORAD_CAT_ID":45434,"ELEMENT_SET_NO":999,"REV_AT_EPOCH":30040,"BSTAR":-0.0010211,"MEAN_MOTION_DOT":-3.49e-06,"MEAN_MOTION_DDOT":0.0},{"OBJECT_NAME":"ONEWEB-0083","OBJECT_ID":"2020-020M","EPOCH":"2026-05-31T04:38:55.112352","MEAN_MOTION":13.11414073,"ECCENTRICITY":0.0001749,"INCLINATION":87.8907,"RA_OF_ASC_NODE":24.4401,"ARG_OF_PERICENTER":84.6755,"MEAN_ANOMALY":275.4573,"EPHEMERIS_TYPE":0,"CLASSIFICATION_TYPE":"U","NORAD_CAT_ID":45435,"ELEMENT_SET_NO":999,"REV_AT_EPOCH":30044,"BSTAR":9.3164e-05,"MEAN_MOTION_DOT":4.6e-07,"MEAN_MOTION_DDOT":0.0},{"OBJECT_NAME":"ONEWEB-0095","OBJECT_ID":"2020-020N","EPOCH":"2026-05-31T04:26:42.723744","MEAN_MOTION":13.1141692,"ECCENTRICITY":0.0002208,"INCLINATION":87.8911,"RA_OF_ASC_NODE":24.4508,"ARG_OF_PERICENTER":101.381,"MEAN_ANOMALY":258.7566,"EPHEMERIS_TYPE":0,"CLASSIFICATION_TYPE":"U","NORAD_CAT_ID":45436,"ELEMENT_SET_NO":999,"REV_AT_EPOCH":30044,"BSTAR":0.0010056,"MEAN_MOTION_DOT":3.69e-06,"MEAN_MOTION_DDOT":0.0},{"OBJECT_NAME":"ONEWEB-0092","OBJECT_ID":"2020-020P","EPOCH":"2026-05-31T03:27:33.887808","MEAN_MOTION":13.11955775,"ECCENTRICITY":0.0002076,"INCLINATION":87.8909,"RA_OF_ASC_NODE":24.4522,"ARG_OF_PERICENTER":89.0902,"MEAN_ANOMALY":271.0464,"EPHEMERIS_TYPE":0,"CLASSIFICATION_TYPE":"U","NORAD_CAT_ID":45437,"ELEMENT_SET_NO":999,"REV_AT_EPOCH":30055,"BSTAR":-0.0009443899999999999,"MEAN_MOTION_DOT":-3.25e-06,"MEAN_MOTION_DDOT":0.0},{"OBJECT_NAME":"ONEWEB-0085","OBJECT_ID":"2020-020Q","EPOCH":"2026-05-31T04:38:31.545888","MEAN_MOTION":13.11415277,"ECCENTRICITY":0.0001792,"INCLINATION":87.8899,"RA_OF_ASC_NODE":24.4483,"ARG_OF_PERICENTER":85.6454,"MEAN_ANOMALY":274.4878,"EPHEMERIS_TYPE":0,"CLASSIFICATION_TYPE":"U","NORAD_CAT_ID":45438,"ELEMENT_SET_NO":999,"REV_AT_EPOCH":30044,"BSTAR":0.00014292,"MEAN_MOTION_DOT":6.3e-07,"MEAN_MOTION_DDOT":0.0},{"OBJECT_NAME":"ONEWEB-0096","OBJECT_ID":"2020-020R","EPOCH":"2026-05-31T04:41:10.224672","MEAN_MOTION":13.11415286,"ECCENTRICITY":0.0001873,"INCLINATION":87.8912,"RA_OF_ASC_NODE":24.4427,"ARG_OF_PERICENTER":86.3349,"MEAN_ANOMALY":273.7993,"EPHEMERIS_TYPE":0,"CLASSIFICATION_TYPE":"U","NORAD_CAT_ID":45439,"ELEMENT_SET_NO":999,"REV_AT_EPOCH":30043,"BSTAR":-0.00026512000000000004,"MEAN_MOTION_DOT":-8.1e-07,"MEAN_MOTION_DDOT":0.0},{"OBJECT_NAME":"ONEWEB-0037","OBJECT_ID":"2020-020S","EPOCH":"2026-05-31T01:58:40.325088","MEAN_MOTION":13.11912913,"ECCENTRICITY":0.0001871,"INCLINATION":87.8921,"RA_OF_ASC_NODE":24.4398,"ARG_OF_PERICENTER":85.8878,"MEAN_ANOMALY":274.2464,"EPHEMERIS_TYPE":0,"CLASSIFICATION_TYPE":"U","NORAD_CAT_ID":45440,"ELEMENT_SET_NO":999,"REV_AT_EPOCH":30045,"BSTAR":0.0005676,"MEAN_MOTION_DOT":2.15e-06,"MEAN_MOTION_DDOT":0.0},{"OBJECT_NAME":"ONEWEB-0042","OBJECT_ID":"2020-020T","EPOCH":"2026-05-31T04:26:19.166784","MEAN_MOTION":13.11415901,"ECCENTRICITY":0.0001904,"INCLINATION":87.8908,"RA_OF_ASC_NODE":24.4413,"ARG_OF_PERICENTER":82.6901,"MEAN_ANOMALY":277.4443,"EPHEMERIS_TYPE":0,"CLASSIFICATION_TYPE":"U","NORAD_CAT_ID":45441,"ELEMENT_SET_NO":999,"REV_AT_EPOCH":30043,"BSTAR":0.0010287,"MEAN_MOTION_DOT":3.77e-06,"MEAN_MOTION_DDOT":0.0},{"OBJECT_NAME":"ONEWEB-0098","OBJECT_ID":"2020-020U","EPOCH":"2026-05-31T04:20:24.902592","MEAN_MOTION":13.11415195,"ECCENTRICITY":0.0001735,"INCLINATION":87.8908,"RA_OF_ASC_NODE":24.4521,"ARG_OF_PERICENTER":86.8058,"MEAN_ANOMALY":273.3268,"EPHEMERIS_TYPE":0,"CLASSIFICATION_TYPE":"U","NORAD_CAT_ID":45442,"ELEMENT_SET_NO":999,"REV_AT_EPOCH":30041,"BSTAR":0.0014104,"MEAN_MOTION_DOT":5.13e-06,"MEAN_MOTION_DDOT":0.0},{"OBJECT_NAME":"ONEWEB-0055","OBJECT_ID":"2020-020V","EPOCH":"2026-05-31T01:59:49.426080","MEAN_MOTION":13.11416223,"ECCENTRICITY":0.0001724,"INCLINATION":87.891,"RA_OF_ASC_NODE":24.4695,"ARG_OF_PERICENTER":83.483,"MEAN_ANOMALY":276.6494,"EPHEMERIS_TYPE":0,"CLASSIFICATION_TYPE":"U","NORAD_CAT_ID":45443,"ELEMENT_SET_NO":999,"REV_AT_EPOCH":30037,"BSTAR":0.0006825900000000001,"MEAN_MOTION_DOT":2.55e-06,"MEAN_MOTION_DDOT":0.0},{"OBJECT_NAME":"ONEWEB-0093","OBJECT_ID":"2020-020W","EPOCH":"2026-05-31T03:20:46.833216","MEAN_MOTION":13.11418565,"ECCENTRICITY":0.0002124,"INCLINATION":87.891,"RA_OF_ASC_NODE":24.4509,"ARG_OF_PERICENTER":76.473,"MEAN_ANOMALY":283.6635,"EPHEMERIS_TYPE":0,"CLASSIFICATION_TYPE":"U","NORAD_CAT_ID":45444,"ELEMENT_SET_NO":999,"REV_AT_EPOCH":30044,"BSTAR":-0.0012230000000000001,"MEAN_MOTION_DOT":-4.21e-06,"MEAN_MOTION_DDOT":0.0},{"OBJECT_NAME":"ONEWEB-0029","OBJECT_ID":"2020-020X","EPOCH":"2026-05-31T02:10:01.572672","MEAN_MOTION":13.11420063,"ECCENTRICITY":0.0002266,"INCLINATION":87.8904,"RA_OF_ASC_NODE":24.4716,"ARG_OF_PERICENTER":72.553,"MEAN_ANOMALY":287.5845,"EPHEMERIS_TYPE":0,"CLASSIFICATION_TYPE":"U","NORAD_CAT_ID":45445,"ELEMENT_SET_NO":999,"REV_AT_EPOCH":30041,"BSTAR":0.0013661,"MEAN_MOTION_DOT":4.97e-06,"MEAN_MOTION_DDOT":0.0},{"OBJECT_NAME":"ONEWEB-0068","OBJECT_ID":"2020-020Y","EPOCH":"2026-05-31T03:20:23.080128","MEAN_MOTION":13.11417269,"ECCENTRICITY":0.0001884,"INCLINATION":87.8912,"RA_OF_ASC_NODE":24.4545,"ARG_OF_PERICENTER":77.6236,"MEAN_ANOMALY":282.5103,"EPHEMERIS_TYPE":0,"CLASSIFICATION_TYPE":"U","NORAD_CAT_ID":45446,"ELEMENT_SET_NO":999,"REV_AT_EPOCH":30036,"BSTAR":-0.0013453999999999999,"MEAN_MOTION_DOT":-4.64e-06,"MEAN_MOTION_DDOT":0.0},{"OBJECT_NAME":"ONEWEB-0046","OBJECT_ID":"2020-020Z","EPOCH":"2026-05-31T03:08:22.231104","MEAN_MOTION":13.11416712,"ECCENTRICITY":0.0002072,"INCLINATION":87.8909,"RA_OF_ASC_NODE":24.4633,"ARG_OF_PERICENTER":83.7007,"MEAN_ANOMALY":276.4356,"EPHEMERIS_TYPE":0,"CLASSIFICATION_TYPE":"U","NORAD_CAT_ID":45447,"ELEMENT_SET_NO":999,"REV_AT_EPOCH":30037,"BSTAR":-0.0013655999999999998,"MEAN_MOTION_DOT":-4.71e-06,"MEAN_MOTION_DDOT":0.0},{"OBJECT_NAME":"ONEWEB-0063","OBJECT_ID":"2020-020AA","EPOCH":"2026-05-31T02:00:14.103648","MEAN_MOTION":13.11419508,"ECCENTRICITY":0.0002067,"INCLINATION":87.8913,"RA_OF_ASC_NODE":24.4706,"ARG_OF_PERICENTER":90.1446,"MEAN_ANOMALY":269.9919,"EPHEMERIS_TYPE":0,"CLASSIFICATION_TYPE":"U","NORAD_CAT_ID":45448,"ELEMENT_SET_NO":999,"REV_AT_EPOCH":30045,"BSTAR":0.00078672,"MEAN_MOTION_DOT":2.92e-06,"MEAN_MOTION_DDOT":0.0},{"OBJECT_NAME":"ONEWEB-0019","OBJECT_ID":"2020-020AB","EPOCH":"2026-05-31T04:45:50.435424","MEAN_MOTION":13.11414464,"ECCENTRICITY":0.0001656,"INCLINATION":87.8905,"RA_OF_ASC_NODE":24.4355,"ARG_OF_PERICENTER":85.0535,"MEAN_ANOMALY":275.0782,"EPHEMERIS_TYPE":0,"CLASSIFICATION_TYPE":"U","NORAD_CAT_ID":45449,"ELEMENT_SET_NO":999,"REV_AT_EPOCH":30031,"BSTAR":-0.00063764,"MEAN_MOTION_DOT":-2.13e-06,"MEAN_MOTION_DDOT":0.0}]